{
  "norad_id": 51864,
  "name": "STARLINK-3548",
  "history": [
    {
      "epoch": "2026-03-28T18:53:35.650752Z",
      "apogee_km": 540.650022495859,
      "perigee_km": 538.7975577334819,
      "latitude_deg": -8.45594644329354e-06,
      "longitude_deg": 173.71269538584838,
      "height_km": 540.4938566358634,
      "semi_major_axis_km": 6917.86079011467,
      "eccentricity": 0.00013389,
      "inclination_deg": 53.217,
      "raan_deg": 283.3139,
      "arg_perigee_deg": 82.2034,
      "mean_anomaly_deg": 277.911,
      "mean_motion_rev_day": 15.08846412
    },
    {
      "epoch": "2026-03-29T21:55:09.196032Z",
      "apogee_km": 540.6588770240442,
      "perigee_km": 538.825639020668,
      "latitude_deg": 2.616868651111544e-05,
      "longitude_deg": 122.15753175511465,
      "height_km": 540.4810419662972,
      "semi_major_axis_km": 6917.879258022355,
      "eccentricity": 0.0001325,
      "inclination_deg": 53.2168,
      "raan_deg": 278.2584,
      "arg_perigee_deg": 80.1419,
      "mean_anomaly_deg": 279.9723,
      "mean_motion_rev_day": 15.0884037
    },
    {
      "epoch": "2026-03-30T05:52:04.869120Z",
      "apogee_km": 540.670264011741,
      "perigee_km": 538.8141970141942,
      "latitude_deg": 4.112203967709064e-05,
      "longitude_deg": 1.112226462613083,
      "height_km": 540.477357140409,
      "semi_major_axis_km": 6917.879230512967,
      "eccentricity": 0.00013415,
      "inclination_deg": 53.2169,
      "raan_deg": 276.7715,
      "arg_perigee_deg": 80.036,
      "mean_anomaly_deg": 280.0784,
      "mean_motion_rev_day": 15.08840379
    },
    {
      "epoch": "2026-03-30T12:13:37.502976Z",
      "apogee_km": 540.7192775014855,
      "perigee_km": 538.77175521548,
      "latitude_deg": -5.425789515242329e-06,
      "longitude_deg": -95.72433975914332,
      "height_km": 540.4766881763127,
      "semi_major_axis_km": 6917.8825163584825,
      "eccentricity": 0.00014076,
      "inclination_deg": 53.2172,
      "raan_deg": 275.5821,
      "arg_perigee_deg": 80.2755,
      "mean_anomaly_deg": 279.8396,
      "mean_motion_rev_day": 15.08839304
    },
    {
      "epoch": "2026-03-30T18:35:09.777408Z",
      "apogee_km": 540.6864105997065,
      "perigee_km": 538.7824740213537,
      "latitude_deg": 4.988071299294306e-05,
      "longitude_deg": 167.4407714518068,
      "height_km": 540.4649858964866,
      "semi_major_axis_km": 6917.87144231053,
      "eccentricity": 0.00013761,
      "inclination_deg": 53.2167,
      "raan_deg": 274.3928,
      "arg_perigee_deg": 80.0132,
      "mean_anomaly_deg": 280.1016,
      "mean_motion_rev_day": 15.08842927
    },
    {
      "epoch": "2026-03-31T18:25:56.819136Z",
      "apogee_km": 540.6656731839785,
      "perigee_km": 538.8130658922155,
      "latitude_deg": 1.9252375483537917e-05,
      "longitude_deg": 164.3051059492566,
      "height_km": 540.4605640892041,
      "semi_major_axis_km": 6917.876369538097,
      "eccentricity": 0.0001339,
      "inclination_deg": 53.2159,
      "raan_deg": 269.9325,
      "arg_perigee_deg": 79.1469,
      "mean_anomaly_deg": 280.9674,
      "mean_motion_rev_day": 15.08841315
    },
    {
      "epoch": "2026-04-01T18:16:44.150304Z",
      "apogee_km": 540.6925625993681,
      "perigee_km": 538.8025965322304,
      "latitude_deg": -2.142581114100379e-06,
      "longitude_deg": 161.16683793513928,
      "height_km": 540.5608504423903,
      "semi_major_axis_km": 6917.884579565799,
      "eccentricity": 0.0001366,
      "inclination_deg": 53.2158,
      "raan_deg": 265.4708,
      "arg_perigee_deg": 85.0058,
      "mean_anomaly_deg": 275.109,
      "mean_motion_rev_day": 15.08838629
    },
    {
      "epoch": "2026-04-02T18:07:30.995904Z",
      "apogee_km": 540.7087571542024,
      "perigee_km": 538.7648346175574,
      "latitude_deg": -3.696962001892016e-05,
      "longitude_deg": 158.03178822893852,
      "height_km": 540.5464230254764,
      "semi_major_axis_km": 6917.873795885879,
      "eccentricity": 0.0001405,
      "inclination_deg": 53.2156,
      "raan_deg": 261.0103,
      "arg_perigee_deg": 84.9332,
      "mean_anomaly_deg": 275.182,
      "mean_motion_rev_day": 15.08842157
    },
    {
      "epoch": "2026-04-02T18:07:30.996768Z",
      "apogee_km": 540.7090338691542,
      "perigee_km": 538.7645579026057,
      "latitude_deg": -4.064819509304452e-05,
      "longitude_deg": 158.03178188380244,
      "height_km": 540.5463985874491,
      "semi_major_axis_km": 6917.873795885879,
      "eccentricity": 0.00014054,
      "inclination_deg": 53.2156,
      "raan_deg": 261.0103,
      "arg_perigee_deg": 84.9332,
      "mean_anomaly_deg": 275.182,
      "mean_motion_rev_day": 15.08842157
    },
    {
      "epoch": "2026-04-03T16:22:55.140960Z",
      "apogee_km": 540.6690619415531,
      "perigee_km": 538.8233706994397,
      "latitude_deg": -4.177524833977299e-05,
      "longitude_deg": 179.1057299018,
      "height_km": 540.5704778720534,
      "semi_major_axis_km": 6917.883216320496,
      "eccentricity": 0.0001334,
      "inclination_deg": 53.2174,
      "raan_deg": 256.8489,
      "arg_perigee_deg": 85.5568,
      "mean_anomaly_deg": 274.5576,
      "mean_motion_rev_day": 15.08839075
    },
    {
      "epoch": "2026-04-03T16:22:55.141824Z",
      "apogee_km": 540.6689927627212,
      "perigee_km": 538.8234398782715,
      "latitude_deg": -4.082639122177355e-05,
      "longitude_deg": 179.10572699741192,
      "height_km": 540.5704832269968,
      "semi_major_axis_km": 6917.883216320496,
      "eccentricity": 0.00013339,
      "inclination_deg": 53.2174,
      "raan_deg": 256.8489,
      "arg_perigee_deg": 85.5568,
      "mean_anomaly_deg": 274.5576,
      "mean_motion_rev_day": 15.08839075
    },
    {
      "epoch": "2026-04-05T14:29:06.877248Z",
      "apogee_km": 540.6675597569811,
      "perigee_km": 538.8564537970069,
      "latitude_deg": 2.4022860658987178e-05,
      "longitude_deg": -162.96151804392696,
      "height_km": 540.5908921751767,
      "semi_major_axis_km": 6917.899006776994,
      "eccentricity": 0.0001309,
      "inclination_deg": 53.2174,
      "raan_deg": 248.2239,
      "arg_perigee_deg": 85.7638,
      "mean_anomaly_deg": 274.3504,
      "mean_motion_rev_day": 15.08833909
    },
    {
      "epoch": "2026-04-05T19:15:16.218720Z",
      "apogee_km": 540.6893246237069,
      "perigee_km": 538.8284106353149,
      "latitude_deg": -1.3878993106984587e-05,
      "longitude_deg": 124.41106400821981,
      "height_km": 540.6844864232975,
      "semi_major_axis_km": 6917.895867629511,
      "eccentricity": 0.0001345,
      "inclination_deg": 53.2166,
      "raan_deg": 247.3313,
      "arg_perigee_deg": 91.8462,
      "mean_anomaly_deg": 268.2684,
      "mean_motion_rev_day": 15.08834936
    },
    {
      "epoch": "2026-04-07T03:02:58.672608Z",
      "apogee_km": 540.7096213777604,
      "perigee_km": 538.7905994933253,
      "latitude_deg": 5.783960609876615e-06,
      "longitude_deg": 0.22920479110938444,
      "height_km": 540.6870847119283,
      "semi_major_axis_km": 6917.887110435543,
      "eccentricity": 0.0001387,
      "inclination_deg": 53.2171,
      "raan_deg": 241.3821,
      "arg_perigee_deg": 92.4692,
      "mean_anomaly_deg": 267.6459,
      "mean_motion_rev_day": 15.08837801
    },
    {
      "epoch": "2026-04-07T15:46:03.632736Z",
      "apogee_km": 540.5770405983012,
      "perigee_km": 538.8987641469857,
      "latitude_deg": 5.64837319135643e-05,
      "longitude_deg": 166.55716220591296,
      "height_km": 540.5432027634025,
      "semi_major_axis_km": 6917.874902372643,
      "eccentricity": 0.0001213,
      "inclination_deg": 53.2177,
      "raan_deg": 239.003,
      "arg_perigee_deg": 83.7988,
      "mean_anomaly_deg": 276.3143,
      "mean_motion_rev_day": 15.08841795
    },
    {
      "epoch": "2026-04-08T15:36:51.433920Z",
      "apogee_km": 540.9106798020439,
      "perigee_km": 538.8083006686611,
      "latitude_deg": -9.987933893348402e-06,
      "longitude_deg": 163.41989263632985,
      "height_km": 541.0329091402684,
      "semi_major_axis_km": 6917.996490235352,
      "eccentricity": 0.00015195,
      "inclination_deg": 53.2179,
      "raan_deg": 234.5443,
      "arg_perigee_deg": 105.3251,
      "mean_anomaly_deg": 254.7909,
      "mean_motion_rev_day": 15.08802017
    },
    {
      "epoch": "2026-04-09T15:27:37.996128Z",
      "apogee_km": 540.6737687011209,
      "perigee_km": 538.8156256772563,
      "latitude_deg": -9.816036595346403e-07,
      "longitude_deg": 160.28705578172506,
      "height_km": 540.6567416516035,
      "semi_major_axis_km": 6917.881697189188,
      "eccentricity": 0.0001343,
      "inclination_deg": 53.2177,
      "raan_deg": 230.0848,
      "arg_perigee_deg": 91.0042,
      "mean_anomaly_deg": 269.1104,
      "mean_motion_rev_day": 15.08839572
    },
    {
      "epoch": "2026-04-10T08:56:52.613088Z",
      "apogee_km": 540.6756461964169,
      "perigee_km": 538.8354867737326,
      "latitude_deg": 3.884599273462736e-05,
      "longitude_deg": -106.01290226568211,
      "height_km": 540.6671671176107,
      "semi_major_axis_km": 6917.892566485075,
      "eccentricity": 0.000133,
      "inclination_deg": 53.2174,
      "raan_deg": 226.8139,
      "arg_perigee_deg": 90.9877,
      "mean_anomaly_deg": 269.1268,
      "mean_motion_rev_day": 15.08836016
    },
    {
      "epoch": "2026-04-11T18:19:59.027232Z",
      "apogee_km": 540.7171210093884,
      "perigee_km": 538.8063973720991,
      "latitude_deg": 4.943355739927624e-05,
      "longitude_deg": 105.59589936383564,
      "height_km": 540.6712552671811,
      "semi_major_axis_km": 6917.8987591907435,
      "eccentricity": 0.0001381,
      "inclination_deg": 53.2189,
      "raan_deg": 220.5705,
      "arg_perigee_deg": 90.8198,
      "mean_anomaly_deg": 269.2953,
      "mean_motion_rev_day": 15.0883399
    }
  ]
}